ONEWEB-0231             
1 48782U 21045R   25237.26053320  .00000016  00000+0  86110-5 0  9998
2 48782  87.9059 318.2456 0001864  89.3970 270.7374 13.15548115205431
ONEWEB-0234             
1 48783U 21045S   25237.60267563  .00000108  00000+0  25282-3 0  9996
2 48783  87.9067 318.1457 0001770 126.6762 233.4531 13.15546488205613
ONEWEB-0238             
1 48784U 21045T   25237.60294028  .00000184  00000+0  45363-3 0  9999
2 48784  87.9064 318.1421 0001837 109.4297 250.7032 13.15548609205512
ONEWEB-0240             
1 48785U 21045U   25237.24388818 -.00000024  00000+0 -96852-4 0  9996
2 48785  87.9070 318.1968 0001579  94.9903 265.1408 13.15547337205492
ONEWEB-0246             
1 48786U 21045V   25237.61862364 -.00011410  00000+0 -30357-1 0  9997
2 48786  87.9072 318.1344 0001621  98.4325 261.6989 13.15602949205416
ONEWEB-0210             
1 48787U 21045W   25237.59328774  .00000128  00000+0  30643-3 0  9999
2 48787  87.9071 318.1391 0002025  78.3580 281.7777 13.15548037205456
ONEWEB-0214             
1 48788U 21045X   25237.60199974  .00000287  00000+0  72907-3 0  9995
2 48788  87.9070 318.1255 0002132  86.1963 273.9412 13.15551586205425
ONEWEB-0221             
1 48789U 21045Y   25237.60914475  .00000058  00000+0  11927-3 0  9998
2 48789  87.9060 318.1512 0001798  92.5951 267.5385 13.15548291205513
ONEWEB-0213             
1 48790U 21045Z   25237.59804591  .00000209  00000+0  51985-3 0  9991
2 48790  87.9065 318.1618 0001839  89.7755 270.3587 13.15547835205578
ONEWEB-0212             
1 48791U 21045AA  25237.27083460  .00000072  00000+0  15806-3 0  9991
2 48791  87.9066 318.2090 0001896  99.5168 260.6176 13.15547188205527
ONEWEB-0227             
1 48792U 21045AB  25237.27004072  .00000050  00000+0  98905-4 0  9992
2 48792  87.9060 318.2284 0001821  95.4521 264.6817 13.15547474205471
ONEWEB-0226             
1 48793U 21045AC  25237.26370163 -.00000154  00000+0 -44378-3 0  9990
2 48793  87.9066 318.2360 0001930  87.7221 272.4131 13.15547990205441
ONEWEB-0224             
1 48794U 21045AD  25237.60754963  .00000095  00000+0  21828-3 0  9990
2 48794  87.9066 318.2034 0000990 113.2663 246.8572 13.15548048205416
ONEWEB-0233             
1 48795U 21045AE  25237.61216577  .00000880  00000+0  23038-2 0  9992
2 48795  87.9069 318.2126 0001715  92.0095 268.1232 13.15559045205432
ONEWEB-0190             
1 48796U 21045AF  25237.59963739  .00000205  00000+0  50928-3 0  9999
2 48796  87.9070 318.1790 0001621  73.1121 287.0187 13.15548900205502
ONEWEB-0236             
1 48797U 21045AG  25237.61706598 -.00000065  00000+0 -20705-3 0  9997
2 48797  87.9071 318.1855 0001932 101.5202 258.6146 13.15547895205395
