[{"OBJECT_NAME":"ONEWEB-0231","OBJECT_ID":"2021-045R","EPOCH":"2025-08-25T06:15:10.068480","MEAN_MOTION":13.15548115,"ECCENTRICITY":0.00018644,"INCLINATION":87.9059,"RA_OF_ASC_NODE":318.2456,"ARG_OF_PERICENTER":89.397,"MEAN_ANOMALY":270.7374,"EPHEMERIS_TYPE":0,"CLASSIFICATION_TYPE":"U","NORAD_CAT_ID":48782,"ELEMENT_SET_NO":999,"REV_AT_EPOCH":20543,"BSTAR":8.61101e-6,"MEAN_MOTION_DOT":1.6e-7,"MEAN_MOTION_DDOT":0},{"OBJECT_NAME":"ONEWEB-0234","OBJECT_ID":"2021-045S","EPOCH":"2025-08-25T14:27:51.174432","MEAN_MOTION":13.15546488,"ECCENTRICITY":0.00017709,"INCLINATION":87.9067,"RA_OF_ASC_NODE":318.1457,"ARG_OF_PERICENTER":126.6762,"MEAN_ANOMALY":233.4531,"EPHEMERIS_TYPE":0,"CLASSIFICATION_TYPE":"U","NORAD_CAT_ID":48783,"ELEMENT_SET_NO":999,"REV_AT_EPOCH":20561,"BSTAR":0.00025281757,"MEAN_MOTION_DOT":1.08e-6,"MEAN_MOTION_DDOT":0},{"OBJECT_NAME":"ONEWEB-0238","OBJECT_ID":"2021-045T","EPOCH":"2025-08-25T14:28:14.040192","MEAN_MOTION":13.15548609,"ECCENTRICITY":0.00018379,"INCLINATION":87.9064,"RA_OF_ASC_NODE":318.1421,"ARG_OF_PERICENTER":109.4297,"MEAN_ANOMALY":250.7032,"EPHEMERIS_TYPE":0,"CLASSIFICATION_TYPE":"U","NORAD_CAT_ID":48784,"ELEMENT_SET_NO":999,"REV_AT_EPOCH":20551,"BSTAR":0.00045362642,"MEAN_MOTION_DOT":1.84e-6,"MEAN_MOTION_DDOT":0},{"OBJECT_NAME":"ONEWEB-0240","OBJECT_ID":"2021-045U","EPOCH":"2025-08-25T05:51:11.938752","MEAN_MOTION":13.15547337,"ECCENTRICITY":0.0001579,"INCLINATION":87.907,"RA_OF_ASC_NODE":318.1968,"ARG_OF_PERICENTER":94.9903,"MEAN_ANOMALY":265.1408,"EPHEMERIS_TYPE":0,"CLASSIFICATION_TYPE":"U","NORAD_CAT_ID":48785,"ELEMENT_SET_NO":999,"REV_AT_EPOCH":20549,"BSTAR":-9.6852161e-5,"MEAN_MOTION_DOT":-2.4e-7,"MEAN_MOTION_DDOT":0},{"OBJECT_NAME":"ONEWEB-0246","OBJECT_ID":"2021-045V","EPOCH":"2025-08-25T14:50:49.082496","MEAN_MOTION":13.15602949,"ECCENTRICITY":0.0001621,"INCLINATION":87.9072,"RA_OF_ASC_NODE":318.1344,"ARG_OF_PERICENTER":98.4325,"MEAN_ANOMALY":261.6989,"EPHEMERIS_TYPE":0,"CLASSIFICATION_TYPE":"U","NORAD_CAT_ID":48786,"ELEMENT_SET_NO":999,"REV_AT_EPOCH":20541,"BSTAR":-0.030357289,"MEAN_MOTION_DOT":-0.0001141,"MEAN_MOTION_DDOT":0},{"OBJECT_NAME":"ONEWEB-0210","OBJECT_ID":"2021-045W","EPOCH":"2025-08-25T14:14:20.060736","MEAN_MOTION":13.15548037,"ECCENTRICITY":0.00020253,"INCLINATION":87.9071,"RA_OF_ASC_NODE":318.1391,"ARG_OF_PERICENTER":78.358,"MEAN_ANOMALY":281.7777,"EPHEMERIS_TYPE":0,"CLASSIFICATION_TYPE":"U","NORAD_CAT_ID":48787,"ELEMENT_SET_NO":999,"REV_AT_EPOCH":20545,"BSTAR":0.00030643062,"MEAN_MOTION_DOT":1.28e-6,"MEAN_MOTION_DDOT":0},{"OBJECT_NAME":"ONEWEB-0214","OBJECT_ID":"2021-045X","EPOCH":"2025-08-25T14:26:52.777536","MEAN_MOTION":13.15551586,"ECCENTRICITY":0.00021323,"INCLINATION":87.907,"RA_OF_ASC_NODE":318.1255,"ARG_OF_PERICENTER":86.1963,"MEAN_ANOMALY":273.9412,"EPHEMERIS_TYPE":0,"CLASSIFICATION_TYPE":"U","NORAD_CAT_ID":48788,"ELEMENT_SET_NO":999,"REV_AT_EPOCH":20542,"BSTAR":0.00072907213,"MEAN_MOTION_DOT":2.87e-6,"MEAN_MOTION_DDOT":0},{"OBJECT_NAME":"ONEWEB-0221","OBJECT_ID":"2021-045Y","EPOCH":"2025-08-25T14:37:10.106400","MEAN_MOTION":13.15548291,"ECCENTRICITY":0.00017987,"INCLINATION":87.906,"RA_OF_ASC_NODE":318.1512,"ARG_OF_PERICENTER":92.5951,"MEAN_ANOMALY":267.5385,"EPHEMERIS_TYPE":0,"CLASSIFICATION_TYPE":"U","NORAD_CAT_ID":48789,"ELEMENT_SET_NO":999,"REV_AT_EPOCH":20551,"BSTAR":0.00011927444,"MEAN_MOTION_DOT":5.8e-7,"MEAN_MOTION_DDOT":0},{"OBJECT_NAME":"ONEWEB-0213","OBJECT_ID":"2021-045Z","EPOCH":"2025-08-25T14:21:11.166624","MEAN_MOTION":13.15547835,"ECCENTRICITY":0.00018397,"INCLINATION":87.9065,"RA_OF_ASC_NODE":318.1618,"ARG_OF_PERICENTER":89.7755,"MEAN_ANOMALY":270.3587,"EPHEMERIS_TYPE":0,"CLASSIFICATION_TYPE":"U","NORAD_CAT_ID":48790,"ELEMENT_SET_NO":999,"REV_AT_EPOCH":20557,"BSTAR":0.00051984668,"MEAN_MOTION_DOT":2.09e-6,"MEAN_MOTION_DDOT":0},{"OBJECT_NAME":"ONEWEB-0212","OBJECT_ID":"2021-045AA","EPOCH":"2025-08-25T06:30:00.109440","MEAN_MOTION":13.15547188,"ECCENTRICITY":0.00018963,"INCLINATION":87.9066,"RA_OF_ASC_NODE":318.209,"ARG_OF_PERICENTER":99.5168,"MEAN_ANOMALY":260.6176,"EPHEMERIS_TYPE":0,"CLASSIFICATION_TYPE":"U","NORAD_CAT_ID":48791,"ELEMENT_SET_NO":999,"REV_AT_EPOCH":20552,"BSTAR":0.00015806314,"MEAN_MOTION_DOT":7.2e-7,"MEAN_MOTION_DDOT":0},{"OBJECT_NAME":"ONEWEB-0227","OBJECT_ID":"2021-045AB","EPOCH":"2025-08-25T06:28:51.518208","MEAN_MOTION":13.15547474,"ECCENTRICITY":0.00018216,"INCLINATION":87.906,"RA_OF_ASC_NODE":318.2284,"ARG_OF_PERICENTER":95.4521,"MEAN_ANOMALY":264.6817,"EPHEMERIS_TYPE":0,"CLASSIFICATION_TYPE":"U","NORAD_CAT_ID":48792,"ELEMENT_SET_NO":999,"REV_AT_EPOCH":20547,"BSTAR":9.890504e-5,"MEAN_MOTION_DOT":5.0e-7,"MEAN_MOTION_DDOT":0},{"OBJECT_NAME":"ONEWEB-0226","OBJECT_ID":"2021-045AC","EPOCH":"2025-08-25T06:19:43.820832","MEAN_MOTION":13.1554799,"ECCENTRICITY":0.00019308,"INCLINATION":87.9066,"RA_OF_ASC_NODE":318.236,"ARG_OF_PERICENTER":87.7221,"MEAN_ANOMALY":272.4131,"EPHEMERIS_TYPE":0,"CLASSIFICATION_TYPE":"U","NORAD_CAT_ID":48793,"ELEMENT_SET_NO":999,"REV_AT_EPOCH":20544,"BSTAR":-0.00044378246,"MEAN_MOTION_DOT":-1.54e-6,"MEAN_MOTION_DDOT":0},{"OBJECT_NAME":"ONEWEB-0224","OBJECT_ID":"2021-045AD","EPOCH":"2025-08-25T14:34:52.288032","MEAN_MOTION":13.15548048,"ECCENTRICITY":9.901e-5,"INCLINATION":87.9066,"RA_OF_ASC_NODE":318.2034,"ARG_OF_PERICENTER":113.2663,"MEAN_ANOMALY":246.8572,"EPHEMERIS_TYPE":0,"CLASSIFICATION_TYPE":"U","NORAD_CAT_ID":48794,"ELEMENT_SET_NO":999,"REV_AT_EPOCH":20541,"BSTAR":0.00021827972,"MEAN_MOTION_DOT":9.5e-7,"MEAN_MOTION_DDOT":0},{"OBJECT_NAME":"ONEWEB-0233","OBJECT_ID":"2021-045AE","EPOCH":"2025-08-25T14:41:31.122528","MEAN_MOTION":13.15559045,"ECCENTRICITY":0.0001715,"INCLINATION":87.9069,"RA_OF_ASC_NODE":318.2126,"ARG_OF_PERICENTER":92.0095,"MEAN_ANOMALY":268.1232,"EPHEMERIS_TYPE":0,"CLASSIFICATION_TYPE":"U","NORAD_CAT_ID":48795,"ELEMENT_SET_NO":999,"REV_AT_EPOCH":20543,"BSTAR":0.0023037767,"MEAN_MOTION_DOT":8.8e-6,"MEAN_MOTION_DDOT":0},{"OBJECT_NAME":"ONEWEB-0190","OBJECT_ID":"2021-045AF","EPOCH":"2025-08-25T14:23:28.670496","MEAN_MOTION":13.155489,"ECCENTRICITY":0.00016212,"INCLINATION":87.907,"RA_OF_ASC_NODE":318.179,"ARG_OF_PERICENTER":73.1121,"MEAN_ANOMALY":287.0187,"EPHEMERIS_TYPE":0,"CLASSIFICATION_TYPE":"U","NORAD_CAT_ID":48796,"ELEMENT_SET_NO":999,"REV_AT_EPOCH":20550,"BSTAR":0.00050927752,"MEAN_MOTION_DOT":2.05e-6,"MEAN_MOTION_DDOT":0},{"OBJECT_NAME":"ONEWEB-0236","OBJECT_ID":"2021-045AG","EPOCH":"2025-08-25T14:48:34.500672","MEAN_MOTION":13.15547895,"ECCENTRICITY":0.00019327,"INCLINATION":87.9071,"RA_OF_ASC_NODE":318.1855,"ARG_OF_PERICENTER":101.5202,"MEAN_ANOMALY":258.6146,"EPHEMERIS_TYPE":0,"CLASSIFICATION_TYPE":"U","NORAD_CAT_ID":48797,"ELEMENT_SET_NO":999,"REV_AT_EPOCH":20539,"BSTAR":-0.00020705007,"MEAN_MOTION_DOT":-6.5e-7,"MEAN_MOTION_DDOT":0}]
